ESTCUBE 1               
1 39161U 13021C   22200.14641993  .00000962  00000+0  15737-3 0  9992
2 39161  97.9085 276.5588 0008669 328.9300  31.1408 14.73004539494139
FENGYUN 3C              
1 39260U 13052A   22199.92813219  .00000063  00000+0  52986-4 0  9991
2 39260  98.4524 226.4467 0010966 178.2018 181.9197 14.15932113456375
CASSIOPE                
1 39265U 13055A   22199.87116222  .00009320  00000+0  25042-3 0  9990
2 39265  80.9635 234.0068 0620052 224.9635 129.9742 14.39103955456859
ZACUBE-1 (TSHEPISOSAT)  
1 39417U 13066B   22199.88968352  .00001941  00000+0  24202-3 0  9999
2 39417  97.6377 169.9718 0056278 302.5856  56.9932 14.82446617467782
CINEMA-3 (KHUSAT-2)     
1 39426U 13066L   22200.06714897  .00000865  00000+0  13982-3 0  9992
2 39426  97.7992 138.6269 0104155 133.9950 226.9902 14.70204528464186
TRITON-1                
1 39427U 13066M   22200.07640885  .00001111  00000+0  18016-3 0  9997
2 39427  97.8132 134.4992 0112055 162.8919 197.6114 14.69027815463611
DELFI-N3XT              
1 39428U 13066N   22199.78635792  .00001701  00000+0  26773-3 0  9998
2 39428  97.8143 132.8010 0116964 176.9630 183.2313 14.69278304463136
GOMX-1                  
1 39430U 13066Q   22199.97519979  .00001362  00000+0  25126-3 0  9994
2 39430  97.8086 105.3737 0148029 305.9488  52.8058 14.60264582460899
BRITE-PL1 (LEM)         
1 39431U 13066R   22199.41253584  .00000471  00000+0  10893-3 0  9996
2 39431  97.6985  50.3702 0202497 132.5050 229.3452 14.47371480457049
ICUBE-1                 
1 39432U 13066S   22200.23466996  .00002770  00000+0  27521-3 0  9993
2 39432  97.4679 202.3607 0031655 155.1676 205.1076 14.92111901470658
HUMSAT-D                
1 39433U 13066T   22200.02048913  .00003551  00000+0  33052-3 0  9990
2 39433  97.4489 209.7801 0030514 131.0948 229.2916 14.94546441471118
VELOX-PII               
1 39438U 13066Y   22199.62253196  .00001830  00000+0  24503-3 0  9998
2 39438  97.6938 160.9551 0069336 356.4921   3.5795 14.78976483465613
FIRST-MOVE              
1 39439U 13066Z   22199.88867987  .00003901  00000+0  45504-3 0  9991
2 39439  97.6385 172.4145 0061032 297.5714  61.9310 14.84417017467801
CUBEBUG-2 (LO-74)       
1 39440U 13066AA  22199.88886461  .00002399  00000+0  32934-3 0  9994
2 39440  97.7273 156.1270 0079574  30.5413 330.0396 14.77097744464926
NEE-02 KRYSAOR          
1 39441U 13066AB  22199.85048993  .00001598  00000+0  22805-3 0  9998
2 39441  97.7385 153.2587 0081706  44.1752 316.5944 14.75805725465829
FUNCUBE-1 (AO-73)       
1 39444U 13066AE  22199.88325745  .00002369  00000+0  28661-3 0  9990
2 39444  97.6257 172.3753 0054964 290.3307  69.2006 14.83548662466187
HINCUBE                 
1 39445U 13066AF  22199.87154951  .00002432  00000+0  29538-3 0  9994
2 39445  97.6272 172.1816 0055043 292.6762  66.8638 14.83352931466122
UWE-3                   
1 39446U 13066AG  22199.85620247  .00002289  00000+0  30009-3 0  9994
2 39446  97.6868 162.5661 0068286 348.3373  11.6254 14.79666248465108
AIST-1 (RS-41)          
1 39492U 13078C   22200.18416983  .00000948  00000+0  99146-4 0  9995
2 39492  82.4169 206.2552 0020086   6.0737 354.0714 14.88496431464501
SPROUT                  
1 39770U 14029E   22200.12429839  .00006555  00000+0  66459-3 0  9999
2 39770  97.9463 317.2678 0008095 352.9680   7.1422 14.91215411442381
UNISAT-6                
1 40012U 14033C   22199.38741094  .00001292  00000+0  19413-3 0  9991
2 40012  97.6621  25.6978 0058734  59.6682 301.0319 14.74976529434541
BUGSAT-1 (TITA)         
1 40014U 14033E   22199.95648131  .00002878  00000+0  25477-3 0  9992
2 40014  98.1395 199.6471 0029462 294.9749  64.8413 14.96826259440859
DUCHIFAT-1              
1 40021U 14033M   22199.84074327  .00003115  00000+0  30478-3 0  9990
2 40021  98.0133 150.6168 0011161 301.8913  58.1219 14.93045856439383
NANOSATC-BR1            
1 40024U 14033Q   22199.80320118  .00003337  00000+0  33579-3 0  9992
2 40024  97.9862 143.7830 0010614 309.8687  50.1597 14.91865900438658
QB50P1                  
1 40025U 14033R   22200.07688407  .00002178  00000+0  22807-3 0  9997
2 40025  97.9604 137.7257 0011178 319.2481  40.7900 14.90620937438989
DTUSAT-2                
1 40030U 14033W   22200.07463562  .00002187  00000+0  23215-3 0  9990
2 40030  97.9369 132.9714 0010581 315.9534  44.0840 14.90066459438867
QB50P2                  
1 40032U 14033Y   22200.11462221  .00002278  00000+0  24174-3 0  9994
2 40032  97.9375 133.0255 0010535 317.1834  42.8562 14.90039959438855
POLYITAN-1              
1 40042U 14033AJ  22199.82199892  .00002899  00000+0  30121-3 0  9999
2 40042  97.9708 138.7017 0013172 310.7082  49.2990 14.90663665438323
TIGRISAT                
1 40043U 14033AK  22199.50051117  .00001015  00000+0  15347-3 0  9994
2 40043  97.6564  27.0846 0060487  56.7387 303.9599 14.75065739434206
AISAT                   
1 40054U 14034B   22199.47630506  .00002789  00000+0  37753-3 0  9992
2 40054  98.3616  12.1371 0011643 210.2082 149.8458 14.79803040434065
CANX-4                  
1 40055U 14034C   22200.21247105  .00000782  00000+0  12297-3 0  9994
2 40055  98.3596 358.2027 0012831 255.6740 104.3043 14.75475781433438
CANX-5                  
1 40056U 14034D   22199.67655003  .00000746  00000+0  11775-3 0  9992
2 40056  98.3595 357.6296 0012835 257.7455 102.2316 14.75469950424137
VELOX-I                 
1 40057U 14034E   22200.17145413  .00001994  00000+0  27579-3 0  9995
2 40057  98.3667  13.9875 0009675 223.2975 136.7471 14.79242284434167
METEOR-M 2              
1 40069U 14037A   22200.15637493  .00000013  00000+0  25108-4 0  9991
2 40069  98.4303 216.5132 0004682 222.7800 137.3021 14.20713485416361
DX1                     
1 40071U 14037C   22200.20714834  .00000772  00000+0  10495-3 0  9999
2 40071  98.4059  70.5192 0007623 208.0277 152.0531 14.81910150434049
UKUBE-1                 
1 40074U 14037F   22200.14565885  .00001930  00000+0  23054-3 0  9997
2 40074  98.3778  82.4685 0003871 171.9605 188.1658 14.85498307434771
FIREBIRD 3              
1 40377U 15003B   22199.62370190  .00014212  00000+0  41796-3 0  9990
2 40377  99.0961  71.5025 0097397 279.6210  79.4032 15.30599077413187
FIREBIRD 4              
1 40378U 15003C   22199.71264033  .00014962  00000+0  43841-3 0  9994
2 40378  99.0965  71.8288 0097303 278.9319  80.0912 15.30701351413203
GRIFEX                  
1 40379U 15003D   22199.84722688  .00009180  00000+0  32220-3 0  9999
2 40379  99.1085  57.5648 0113653 322.3493  36.9822 15.23732248412405
CP10 (EXOCUBE)          
1 40380U 15003E   22199.29577808  .00006344  00000+0  24333-3 0  9997
2 40380  99.1182  49.5735 0122401 348.8002  11.0508 15.20221384411846
DEORBITSAIL             
1 40719U 15032E   22199.91573640  .00002269  00000+0  31703-3 0  9995
2 40719  97.7787  77.2029 0014244 262.8746  97.0846 14.78520907378538
NUDT-PHONESAT           
1 40900U 15049B   22200.16268927  .00028141  00000+0  76813-3 0  9992
2 40900  97.3985 218.3325 0010136 160.6209 268.0557 15.37340351379481
XW-2A                   
1 40903U 15049E   22200.07343701  .00023514  00000+0  35502-3 0  9998
2 40903  97.1773 258.6724 0009074  15.7353  45.6765 15.54695056384172
XW-2C                   
1 40906U 15049H   22200.26400053  .00005270  00000+0  25210-3 0  9990
2 40906  97.4925 203.4263 0012142 245.4551 126.6072 15.19358351377757
XW-2D                   
1 40907U 15049J   22200.22942637  .00006014  00000+0  28160-3 0  9990
2 40907  97.4917 203.4005 0011407 240.3681 252.3274 15.20047132377793
LILACSAT-2              
1 40908U 15049K   22200.24920204  .00002950  00000+0  15701-3 0  9991
2 40908  97.5169 200.5189 0013521 266.7954 223.9849 15.15954667377302
XW-2E                   
1 40909U 15049L   22200.24722313  .00009493  00000+0  39388-3 0  9999
2 40909  97.4638 208.0151 0010608 216.7727 200.9030 15.24024365378256
XW-2F                   
1 40910U 15049M   22200.25139153  .00009398  00000+0  39601-3 0  9998
2 40910  97.4717 207.1606 0011567 218.7149 197.3587 15.23494030378026
XW-2B                   
1 40911U 15049N   22200.24287126  .00006006  00000+0  28215-3 0  9994
2 40911  97.4905 204.0064 0011263 241.9282 174.0280 15.19932285377686
KAITUO 1B               
1 40912U 15049P   22200.19069481  .00010946  00000+0  41909-3 0  9994
2 40912  97.4356 211.4485 0012427 181.4640 237.2185 15.26654155378597
TIANWANG 1A (TW-1A)     
1 40928U 15051D   22200.21475861  .00048533  00000+0  55142-3 0  9997
2 40928  97.0360 222.6345 0004450 256.3018 168.6960 15.62179982383192
LAPAN-A2                
1 40931U 15052B   22199.51418039  .00001756  00000+0  15469-3 0  9990
2 40931   6.0019 307.4502 0013923 252.5325  97.3799 14.76835183367936
LQSAT                   
1 40958U 15057A   22200.11884180  .00000394  00000+0  68096-4 0  9999
2 40958  97.7476 244.9112 0017036 215.2493 144.7603 14.73390986364642
ATHENOXAT 1             
1 41168U 15077C   22200.28744951  .00014983  00000+0  60806-3 0  9993
2 41168  14.9885 214.3435 0008366 326.7531 133.1097 15.21679027365164
GALASSIA                
1 41170U 15077E   22199.68257657  .00011425  00000+0  46720-3 0  9996
2 41170  14.9871 209.8939 0010507 346.9573  13.0477 15.20873970364989
VELOX-II                
1 41171U 15077F   22199.57302586  .00008577  00000+0  39531-3 0  9993
2 41171  14.9910 285.5888 0007741 181.8077 178.2216 15.16152735364405
CHUBUSAT-2              
1 41338U 16012B   22199.64560959  .00001928  00000+0  13897-3 0  9996
2 41338  31.0013 185.2730 0013257 102.6162 257.5957 15.01474036352170
CHUBUSAT-3              
1 41339U 16012C   22200.23515809  .00001722  00000+0  12318-3 0  9998
2 41339  31.0093 178.4475 0012826 116.6806 243.5158 15.01546002352261
HORYU-4                 
1 41340U 16012D   22199.57731116  .00003431  00000+0  23916-3 0  9990
2 41340  31.0036 160.3325 0013218 151.1750 208.9619 15.03477268352415
